141P-H/Machholz,e,14.0173,241.8510,153.6195,3.045923,0.1854068,0.73461279,322.0333,09/09.0/2025,2000,g 18.5,4.0
# From MPEC 2022-SU8
141P-I/Machholz,e,13.9420,153.4539,241.9432,3.047548,0.1852585,0.73511350,319.8696,09/09.0/2025,2000,g 17.5,4.0
# From MPEC 2024-C04
142P/Ge-Wang,e,12.2440,175.9612,174.0562,5.003557,0.0880614,0.49585677,139.3144,09/09.0/2025,2000,g  8.5,6.0
# From MPC182888
143P/Kowal-Mrkos,e,5.4150,242.2793,304.4895,4.769977,0.0946084,0.38054798,315.1648,09/09.0/2025,2000,g 13.5,2.0
# From MPEC 2024-YC7
144P/Kushida,e,3.9316,242.9246,216.3672,3.834130,0.1312816,0.63496702,77.7396,09/09.0/2025,2000,g  8.5,8.0
# From MPEC 2025-R69
145P/Shoemaker-Levy,e,11.2780,26.7678,10.4136,4.129866,0.1174357,0.54241842,342.9808,09/09.0/2025,2000,g 13.5,4.0
# From MPC184418
146P/Shoemaker-LINEAR,e,23.1169,53.3456,317.0326,4.024153,0.1220934,0.64758633,48.7879,09/09.0/2025,2000,g 15.0,4.0
# From MPEC 2024-UQ8
147P/Kushida-Muramatsu,e,2.3115,91.6676,348.6235,4.010013,0.1227398,0.21175746,78.7318,09/09.0/2025,2000,g 14.0,4.0
# From MPEC 2024-JU4
148P/Anderson-LINEAR,e,3.6589,89.1952,8.0866,3.620188,0.1430894,0.55040942,169.2162,09/09.0/2025,2000,g 16.0,2.0
# From MPEC 2023-J29
149P/Mueller,e,34.2401,143.7390,30.1789,4.131881,0.1173498,0.32450749,305.6409,09/09.0/2025,2000,g  8.0,8.0
# From MPEC 2024-NE4
150P/LONEOS,e,18.5486,272.0558,246.1223,3.872002,0.1293602,0.54927248,70.5581,09/09.0/2025,2000,g 13.5,4.0
# From MPEC 2022-K19
151P/Helin,e,4.7251,143.1156,216.1550,5.766932,0.0711683,0.57241286,257.5801,09/09.0/2025,2000,g 10.0,6.0
# From MPC182888
152P/Helin-Lawrence,e,9.8797,91.7760,164.4286,4.486141,0.1037277,0.30666271,138.4922,09/09.0/2025,2000,g 11.5,4.0
# From MPC 46101
153P/Ikeya-Zhang,e,28.5074,93.8100,34.2039,50.51445,0.0027452,0.99019049,0.0000,03/13.8137/2002,2000,g  7.0,4.0
# From MPC184418
154P/Brewington,e,17.6392,342.9950,47.9228,4.794576,0.0938812,0.67622559,42.5108,09/09.0/2025,2000,g  2.5,12.0
# From MPEC 2022-YN2
155P/Shoemaker,e,6.4109,97.1568,14.5353,6.572104,0.0584989,0.72772494,124.1530,09/09.0/2025,2000,g 10.0,4.8
# From MPEC 2023-J29
156P/Russell-LINEAR,e,17.2593,35.3313,0.5299,3.462612,0.1529672,0.61481633,268.4431,09/09.0/2025,2000,g 15.5,2.0
# From MPEC 2024-D33
157P/Tritton,e,12.4251,287.4959,155.1865,3.548111,0.1474715,0.55677948,161.4471,09/09.0/2025,2000,g 10.0,4.0
# From MPEC 2022-VC5
157P-B/Tritton,e,12.4258,153.8744,287.2215,3.102730,0.1803383,0.49988920,197.7402,09/09.0/2025,2000,g 15.7,4.0
# From MPC182888
158P/Kowal-LINEAR,e,7.4731,124.2815,231.3796,5.705637,0.0723182,0.11650729,78.1807,09/09.0/2025,2000,g  9.0,4.0
# From MPEC 2024-DC6
159P/LONEOS,e,23.4815,54.9384,4.7400,5.855468,0.0695603,0.38246774,185.2132,09/09.0/2025,2000,g 10.0,4.0
# From MPEC 2022-K19
160P/LINEAR,e,15.5940,333.3441,12.7761,3.779983,0.1341125,0.52494312,282.8528,09/09.0/2025,2000,g 15.5,2.0
# From MPC 75721
161P/Hartley-IRAS,e,95.8187,1.5084,47.0661,7.716969,0.0459763,0.83586075,339.5431,09/09.0/2025,2000,g  8.5,6.0
# From MPC186636
162P/SidingSpring,e,27.5524,30.8734,357.2427,3.091655,0.1813082,0.58291096,314.5218,09/09.0/2025,2000,g 12.0,4.0
# From MPEC 2021-S45
163P/NEAT,e,12.7212,102.0725,349.6489,3.760615,0.1351499,0.45349751,300.4077,09/09.0/2025,2000,g 14.5,4.0
# From MPEC 2024-TD8
164P/Christensen,e,16.2769,88.2690,325.9463,3.652916,0.1411707,0.54144902,14.7671,09/09.0/2025,2000,g 11.0,4.0
# From MPC 75721
165P/LINEAR,e,15.9105,0.6517,125.9084,17.81451,0.0131082,0.61940456,120.7954,09/09.0/2025,2000,g 11.5,2.0
# From MPC 75722
166P/NEAT,e,15.3766,64.4432,321.8676,13.84525,0.0191317,0.38255831,162.5646,09/09.0/2025,2000,g  5.5,4.0
# From MPEC 2023-J29
167P/CINEOS,e,19.0733,295.8416,344.3880,16.24923,0.0150472,0.26781711,134.4587,09/09.0/2025,2000,g  9.5,2.0
# From MPEC 2023-J29
168P/Hergenrother,e,21.5945,355.3839,15.1040,3.586623,0.1451027,0.62123576,322.3812,09/09.0/2025,2000,g 15.5,4.0
# From MPC184418
169P/NEAT,e,11.2859,176.0511,218.1281,2.603627,0.2346043,0.76800381,271.4711,09/09.0/2025,2000,g 16.0,2.0
# From MPC184418
170P/Christensen,e,10.1321,142.6356,224.6664,4.192716,0.1148050,0.30533635,100.7503,09/09.0/2025,2000,g 12.0,4.0
# From MPC102102
171P/Spahr,e,21.9508,101.6998,347.0801,3.553362,0.1471448,0.50291062,357.6421,09/09.0/2025,2000,g 13.5,4.0
# From MPC185664
172P/Yeung,e,11.2225,30.8820,208.8799,4.224022,0.1135311,0.20497964,353.8204,09/09.0/2025,2000,g 13.0,4.0
# From MPEC 2023-N01
173P/Mueller,e,16.4939,100.3451,29.3119,5.716088,0.0721200,0.26242562,98.1471,09/09.0/2025,2000,g  7.5,4.0
# From MPC114608
175P/Hergenrother,e,4.9292,109.8060,74.5941,3.692347,0.1389154,0.37553064,310.1328,09/09.0/2025,2000,g 14.0,4.0
# From MPEC 2020-L06
177P/Barnard,e,31.0024,271.8537,60.7773,24.50688,0.0081240,0.95413663,56.4714,09/09.0/2025,2000,g 15.0,4.0
# From MPEC 2024-R10
178P/Hug-Bell,e,11.0928,102.7839,297.9665,3.632713,0.1423500,0.48223599,267.4076,09/09.0/2025,2000,g 13.5,4.0
# From MPEC 2024-EF7
179P/Jedicke,e,19.8895,115.5063,297.2326,5.937484,0.0681240,0.30531901,81.4890,09/09.0/2025,2000,g  2.5,8.0
# From MPEC 2024-F34
180P/NEAT,e,16.8616,84.5581,94.5954,3.867552,0.1295835,0.35391279,102.3473,09/09.0/2025,2000,g 11.0,4.0
# From MPC 89012
181P/Shoemaker-Levy,e,17.4721,35.4445,336.2897,3.879398,0.1289905,0.69968723,172.8279,09/09.0/2025,2000,g 11.5,4.0
# From MPEC 2024-UQ8
182P/LONEOS,e,16.2304,72.4508,54.2167,2.948571,0.1946645,0.66400154,236.5127,09/09.0/2025,2000,g 18.0,4.0
# From MPEC 2024-VJ2
183P/Korlevic-Juric,e,18.7207,3.4623,162.3079,4.712305,0.0963505,0.10285294,289.3302,09/09.0/2025,2000,g 12.5,2.0
# From MPEC 2020-W26
184P/Lovas,e,4.5695,173.2647,186.5587,3.801100,0.1329965,0.54969788,236.7252,09/09.0/2025,2000,g 13.5,4.0
# From MPEC 2024-F91
185P/Petriew,e,14.0083,214.1236,181.9228,3.099872,0.1805878,0.69933675,142.5277,09/09.0/2025,2000,g 15.0,4.0
# From MPEC 2022-X67
186P/Garradd,e,28.6736,325.8239,268.2757,4.858517,0.0920340,0.12355160,227.1054,09/09.0/2025,2000,g  7.5,4.0
# From MPEC 2020-SI8
187P/LINEAR,e,13.6688,109.8472,131.8152,4.548216,0.1016114,0.15638685,270.7002,09/09.0/2025,2000,g  9.0,4.0
# From MPEC 2025-R69
188P/LINEAR-Mueller,e,10.5253,358.9116,26.8406,4.364471,0.1080953,0.41662702,336.6200,09/09.0/2025,2000,g 11.5,4.0
# From MPEC 2022-QD9
189P/NEAT,e,20.1218,281.6869,16.1859,2.939046,0.1956116,0.59112541,216.3907,09/09.0/2025,2000,g 19.0,4.0
# From MPC182889
190P/Mueller,e,2.1754,335.4469,50.5602,4.231952,0.1132121,0.52294176,29.3040,09/09.0/2025,2000,g 13.0,4.0
# From MPEC 2024-TD8
191P/McNaught,e,8.8396,98.1778,284.2680,3.641090,0.1418590,0.38503477,231.7917,09/09.0/2025,2000,g 13.0,4.0
# From MPC182889
192P/Shoemaker-Levy,e,24.5777,51.5600,313.0299,6.450854,0.0601559,0.77334359,28.4249,09/09.0/2025,2000,g 15.0,4.0
# From MPEC 2024-R10
193P/LINEAR-NEAT,e,10.6783,335.1842,8.1087,3.579804,0.1455175,0.39252809,214.9985,09/09.0/2025,2000,g 14.0,4.0
# From MPEC 2024-GJ3
194P/LINEAR,e,11.8032,349.5047,128.6320,4.123227,0.1177195,0.56341708,68.5891,09/09.0/2025,2000,g 16.0,4.0
# From MPC185664
195P/Hill,e,36.4154,243.0927,250.6325,6.442027,0.0602796,0.31068987,2.0587,09/09.0/2025,2000,g  8.5,4.0
# From MPEC 2024-GJ3
196P/Tichy,e,19.2931,24.1251,12.1440,3.806589,0.1327089,0.42742482,138.8000,09/09.0/2025,2000,g 13.5,4.0
# From MPEC 2023-UR6
197P/LINEAR,e,25.2481,66.1613,189.9766,2.909794,0.1985687,0.61813504,200.4463,09/09.0/2025,2000,g 16.5,2.0
# From MPEC 2024-VJ2
198P/ODAS,e,1.3399,358.4674,69.0515,3.592905,0.1447223,0.44480046,355.9320,09/09.0/2025,2000,g 12.5,4.0
# From MPEC 2024-Q20
199P/Shoemaker,e,24.9393,92.3435,191.7564,5.872605,0.0692561,0.50429528,52.8946,09/09.0/2025,2000,g 10.0,4.0
# From MPEC 2022-C56
200P/Larsen,e,12.0946,234.8122,134.3800,4.953912,0.0893885,0.33100053,199.7620,09/09.0/2025,2000,g  9.0,4.0
# From MPC 93588
201P/LONEOS,e,5.7365,41.5206,19.8109,3.354540,0.1604186,0.63748634,251.0459,09/09.0/2025,2000,g 14.0,4.0
# From MPC182889
202P/Scotti,e,2.1418,177.3004,274.5062,4.099190,0.1187564,0.25103541,56.9650,09/09.0/2025,2000,g 13.5,4.0
# From MPEC 2025-A40
203P/Korlevic,e,2.9762,290.2202,154.9529,4.668362,0.0977141,0.31639692,196.5194,09/09.0/2025,2000,g 14.5,2.0
# From MPEC 2024-JU4
204P/LINEAR-NEAT,e,6.5982,108.4724,356.7356,3.584238,0.1452475,0.48831413,149.1140,09/09.0/2025,2000,g 14.0,4.0
# From MPEC 2023_O39
205P/Giacobini,e,15.3000,179.6241,154.1466,3.543240,0.1477758,0.56715198,197.3732,09/09.0/2025,2000,g 13.0,4.0
# From MPC 75725
206P/Barnard-Boattini,e,33.6143,202.3379,189.5804,3.491479,0.1510741,0.55108049,249.1031,09/09.0/2025,2000,g 19.0,4.0
# From MPEC 2024-NE4
207P/NEAT,e,10.1979,198.1306,273.0391,3.886461,0.1286390,0.75854416,75.3954,09/09.0/2025,2000,g 16.0,4.0
# From MPC182889
208P/McMillan,e,4.4094,36.3180,310.8629,4.044021,0.1211948,0.37436722,46.1133,09/09.0/2025,2000,g 12.5,4.0
# From MPEC 2024-TD8
209P/LINEAR,e,21.2833,62.7618,152.4771,2.957578,0.1937759,0.67405350,81.6781,09/09.0/2025,2000,g 17.0,2.0
# From MPEC 2025-R69
210P/Christensen,e,10.2873,93.7977,345.9488,3.160494,0.1754169,0.83407006,346.8915,09/09.0/2025,2000,g 13.5,4.0
# From MPEC 2024-JU4
211P/Hill,e,18.9257,117.1002,4.3575,3.548816,0.1474276,0.34454249,157.7027,09/09.0/2025,2000,g 12.5,4.0
# From MPEC 2024-GJ3
212P/NEAT,e,22.1495,97.9710,14.0690,3.903446,0.1278003,0.58677123,64.1339,09/09.0/2025,2000,g 17.0,2.0
# From MPC184418
213P/VanNess,e,10.4761,310.7345,6.8251,3.359794,0.1600424,0.41061545,106.3135,09/09.0/2025,2000,g 10.5,4.0
# From MPEC 2025-GB9
213P-B/Van Ness,e,10.4754,310.7310,6.8436,3.359658,0.1600522,0.41049208,106.3407,09/09.0/2025,2000,g 17.0,4.0
# From MPC 76570
213P-C/Van Ness,e,10.3526,4.8727,312.5533,3.356683,0.1602650,0.41016637,106.7026,09/09.0/2025,2000,g 17.5,4.0
# From MPC 92986
214P/LINEAR,e,15.1942,348.2116,190.1184,3.616252,0.1433231,0.48637219,154.5761,09/09.0/2025,2000,g 13.0,4.0
# From MPC184418
215P/NEAT,e,10.5762,56.6791,262.2135,4.336244,0.1091525,0.16488135,232.0613,09/09.0/2025,2000,g 11.0,4.0
# From MPEC 2024-N80
